{
  "type": "FeatureCollection",
  "features": [
    {
      "type": "Feature",
      "properties": {
        "norad_id": 41877,
        "name": "RESOURCESAT-2A",
        "group": "resource",
        "lat": -56.443194133865966,
        "lon": -146.1054160105547,
        "alt_km": 826.6390826200304,
        "timestamp": "2025-12-03T10:52:57.107292+00:00",
        "meta_object_name": "RESOURCESAT-2A",
        "meta_object_id": "2016-074A",
        "meta_epoch": "2025-12-03T04:42:04.970304",
        "meta_mean_motion": 14.21592717,
        "meta_eccentricity": 0.0001174,
        "meta_inclination": 98.7768,
        "meta_ra_of_asc_node": 47.107,
        "meta_arg_of_pericenter": 302.7926,
        "meta_mean_anomaly": 57.3138,
        "meta_ephemeris_type": 0,
        "meta_classification_type": "U",
        "meta_norad_cat_id": 41877,
        "meta_element_set_no": 999,
        "meta_rev_at_epoch": 46645,
        "meta_bstar": 0.00012414,
        "meta_mean_motion_dot": 2.28e-06,
        "meta_mean_motion_ddot": 0,
        "tle_line1": "1 41877U 16074A   25337.19589086  .00000228  00000+0  12414-3 0  9997",
        "tle_line2": "2 41877  98.7768  47.1070 0001174 302.7926  57.3138 14.21592717466456"
      },
      "geometry": {
        "type": "Point",
        "coordinates": [
          -146.1054160105547,
          -56.443194133865966
        ]
      }
    },
    {
      "type": "Feature",
      "properties": {
        "norad_id": 41948,
        "name": "CARTOSAT-2D",
        "group": "resource",
        "lat": -45.70622272278297,
        "lon": -152.60566161675908,
        "alt_km": 511.6758639518348,
        "timestamp": "2025-12-03T10:52:57.107302+00:00",
        "meta_object_name": "CARTOSAT-2D",
        "meta_object_id": "2017-008A",
        "meta_epoch": "2025-12-03T06:43:44.522688",
        "meta_mean_motion": 15.19341137,
        "meta_eccentricity": 0.0004908,
        "meta_inclination": 97.4402,
        "meta_ra_of_asc_node": 34.9214,
        "meta_arg_of_pericenter": 197.9846,
        "meta_mean_anomaly": 162.1215,
        "meta_ephemeris_type": 0,
        "meta_classification_type": "U",
        "meta_norad_cat_id": 41948,
        "meta_element_set_no": 999,
        "meta_rev_at_epoch": 48783,
        "meta_bstar": 2.9893e-06,
        "meta_mean_motion_dot": -4e-08,
        "meta_mean_motion_ddot": 0,
        "tle_line1": "1 41948U 17008A   25337.28037642 -.00000004  00000+0  29893-5 0  9994",
        "tle_line2": "2 41948  97.4402  34.9214 0004908 197.9846 162.1215 15.19341137487835"
      },
      "geometry": {
        "type": "Point",
        "coordinates": [
          -152.60566161675908,
          -45.70622272278297
        ]
      }
    },
    {
      "type": "Feature",
      "properties": {
        "norad_id": 42063,
        "name": "SENTINEL-2B",
        "group": "resource",
        "lat": -75.6704219667159,
        "lon": -166.1642511724225,
        "alt_km": 797.086827113355,
        "timestamp": "2025-12-03T10:52:57.107312+00:00",
        "meta_object_name": "SENTINEL-2B",
        "meta_object_id": "2017-013A",
        "meta_epoch": "2025-12-03T04:38:35.714688",
        "meta_mean_motion": 14.30809706,
        "meta_eccentricity": 0.0001116,
        "meta_inclination": 98.5727,
        "meta_ra_of_asc_node": 49.7731,
        "meta_arg_of_pericenter": 98.3278,
        "meta_mean_anomaly": 261.8031,
        "meta_ephemeris_type": 0,
        "meta_classification_type": "U",
        "meta_norad_cat_id": 42063,
        "meta_element_set_no": 999,
        "meta_rev_at_epoch": 45661,
        "meta_bstar": 0.00010426,
        "meta_mean_motion_dot": 2.3e-06,
        "meta_mean_motion_ddot": 0,
        "tle_line1": "1 42063U 17013A   25337.19346892  .00000230  00000+0  10426-3 0  9999",
        "tle_line2": "2 42063  98.5727  49.7731 0001116  98.3278 261.8031 14.30809706456613"
      },
      "geometry": {
        "type": "Point",
        "coordinates": [
          -166.1642511724225,
          -75.6704219667159
        ]
      }
    },
    {
      "type": "Feature",
      "properties": {
        "norad_id": 42767,
        "name": "CARTOSAT-2E",
        "group": "resource",
        "lat": 43.26936496096322,
        "lon": -137.7555084624356,
        "alt_km": 506.20896633088705,
        "timestamp": "2025-12-03T10:52:57.107323+00:00",
        "meta_object_name": "CARTOSAT-2E",
        "meta_object_id": "2017-036C",
        "meta_epoch": "2025-12-03T03:57:41.776704",
        "meta_mean_motion": 15.19164652,
        "meta_eccentricity": 0.0002325,
        "meta_inclination": 97.4578,
        "meta_ra_of_asc_node": 34.8766,
        "meta_arg_of_pericenter": 287.9721,
        "meta_mean_anomaly": 72.126,
        "meta_ephemeris_type": 0,
        "meta_classification_type": "U",
        "meta_norad_cat_id": 42767,
        "meta_element_set_no": 999,
        "meta_rev_at_epoch": 46838,
        "meta_bstar": 0.00036378,
        "meta_mean_motion_dot": 7.583e-05,
        "meta_mean_motion_ddot": 0,
        "tle_line1": "1 42767U 17036C   25337.16506686  .00007583  00000+0  36378-3 0  9993",
        "tle_line2": "2 42767  97.4578  34.8766 0002325 287.9721  72.1260 15.19164652468387"
      },
      "geometry": {
        "type": "Point",
        "coordinates": [
          -137.7555084624356,
          43.26936496096322
        ]
      }
    },
    {
      "type": "Feature",
      "properties": {
        "norad_id": 42920,
        "name": "FORMOSAT-5",
        "group": "resource",
        "lat": -52.518675832918035,
        "lon": 62.857942978179416,
        "alt_km": 722.456355839242,
        "timestamp": "2025-12-03T10:52:57.107334+00:00",
        "meta_object_name": "FORMOSAT-5",
        "meta_object_id": "2017-049A",
        "meta_epoch": "2025-12-03T04:30:26.194752",
        "meta_mean_motion": 14.50995634,
        "meta_eccentricity": 0.001033,
        "meta_inclination": 98.2463,
        "meta_ra_of_asc_node": 51.6959,
        "meta_arg_of_pericenter": 327.4143,
        "meta_mean_anomaly": 32.6413,
        "meta_ephemeris_type": 0,
        "meta_classification_type": "U",
        "meta_norad_cat_id": 42920,
        "meta_element_set_no": 999,
        "meta_rev_at_epoch": 43825,
        "meta_bstar": 9.794e-05,
        "meta_mean_motion_dot": 3.44e-06,
        "meta_mean_motion_ddot": 0,
        "tle_line1": "1 42920U 17049A   25337.18780318  .00000344  00000+0  97940-4 0  9997",
        "tle_line2": "2 42920  98.2463  51.6959 0010330 327.4143  32.6413 14.50995634438254"
      },
      "geometry": {
        "type": "Point",
        "coordinates": [
          62.857942978179416,
          -52.518675832918035
        ]
      }
    },
    {
      "type": "Feature",
      "properties": {
        "norad_id": 42969,
        "name": "SENTINEL-5P",
        "group": "resource",
        "lat": -46.30950725648315,
        "lon": -74.57268095862214,
        "alt_km": 834.1787349751639,
        "timestamp": "2025-12-03T10:52:57.107344+00:00",
        "meta_object_name": "SENTINEL-5P",
        "meta_object_id": "2017-064A",
        "meta_epoch": "2025-12-03T02:38:43.128096",
        "meta_mean_motion": 14.19513401,
        "meta_eccentricity": 9.45e-05,
        "meta_inclination": 98.7769,
        "meta_ra_of_asc_node": 275.7804,
        "meta_arg_of_pericenter": 85.6828,
        "meta_mean_anomaly": 274.4456,
        "meta_ephemeris_type": 0,
        "meta_classification_type": "U",
        "meta_norad_cat_id": 42969,
        "meta_element_set_no": 999,
        "meta_rev_at_epoch": 42174,
        "meta_bstar": 7.3942e-05,
        "meta_mean_motion_dot": 1.12e-06,
        "meta_mean_motion_ddot": 0,
        "tle_line1": "1 42969U 17064A   25337.11022139  .00000112  00000+0  73942-4 0  9999",
        "tle_line2": "2 42969  98.7769 275.7804 0000945  85.6828 274.4456 14.19513401421745"
      },
      "geometry": {
        "type": "Point",
        "coordinates": [
          -74.57268095862214,
          -46.30950725648315
        ]
      }
    },
    {
      "type": "Feature",
      "properties": {
        "norad_id": 42987,
        "name": "SKYSAT-C11",
        "group": "resource",
        "lat": 52.51471154313143,
        "lon": -55.50525637478892,
        "alt_km": 420.47738293121256,
        "timestamp": "2025-12-03T10:52:57.107355+00:00",
        "meta_object_name": "SKYSAT-C11",
        "meta_object_id": "2017-068A",
        "meta_epoch": "2025-12-02T21:54:56.744064",
        "meta_mean_motion": 15.46817041,
        "meta_eccentricity": 9.46e-05,
        "meta_inclination": 97.4134,
        "meta_ra_of_asc_node": 114.1667,
        "meta_arg_of_pericenter": 117.2528,
        "meta_mean_anomaly": 242.8818,
        "meta_ephemeris_type": 0,
        "meta_classification_type": "U",
        "meta_norad_cat_id": 42987,
        "meta_element_set_no": 999,
        "meta_rev_at_epoch": 45279,
        "meta_bstar": 0.00055886,
        "meta_mean_motion_dot": 0.00028006,
        "meta_mean_motion_ddot": 0,
        "tle_line1": "1 42987U 17068A   25336.91315676  .00028006  00000+0  55886-3 0  9999",
        "tle_line2": "2 42987  97.4134 114.1667 0000946 117.2528 242.8818 15.46817041452798"
      },
      "geometry": {
        "type": "Point",
        "coordinates": [
          -55.50525637478892,
          52.51471154313143
        ]
      }
    }
  ]
}